{"type": "FeatureCollection", "features": [ {"type": "Feature", "properties": {"norad_id": 30110, "name": "FENGYUN 1C DEB", "group": "fengyun-1c-debris", "lat": -77.99547160383628, "lon": -125.89633566363311, "alt_km": 996.644332032376, "timestamp": "2025-12-19T10:50:01.474933+00:00", "meta": {"OBJECT_NAME": "FENGYUN 1C DEB", "OBJECT_ID": "1999-025RP", "EPOCH": "2025-12-18T19:21:42.134688", "MEAN_MOTION": 13.56227132, "ECCENTRICITY": 0.02673809, "INCLINATION": 98.9078, "RA_OF_ASC_NODE": 101.0421, "ARG_OF_PERICENTER": 337.4224, "MEAN_ANOMALY": 21.5329, "EPHEMERIS_TYPE": 0, "CLASSIFICATION_TYPE": "U", "NORAD_CAT_ID": 30110, "ELEMENT_SET_NO": 999, "REV_AT_EPOCH": 93597, "BSTAR": 0.00023248214, "MEAN_MOTION_DOT": 1.66e-06, "MEAN_MOTION_DDOT": 0}, "tle": {"line1": "1 30110U 99025RP  25352.80673767  .00000166  00000+0  23248-3 0  9995", "line2": "2 30110  98.9078 101.0421 0267380 337.4224  21.5329 13.56227132935975"}}, "geometry": {"type": "Point", "coordinates": [-125.89633566363311, -77.99547160383628]}}, {"type": "Feature", "properties": {"norad_id": 30112, "name": "FENGYUN 1C DEB", "group": "fengyun-1c-debris", "lat": -66.955068146216, "lon": 125.14540988129367, "alt_km": 961.2997638556371, "timestamp": "2025-12-19T10:50:01.474943+00:00", "meta": {"OBJECT_NAME": "FENGYUN 1C DEB", "OBJECT_ID": "1999-025RR", "EPOCH": "2025-12-18T21:51:47.615328", "MEAN_MOTION": 14.22239392, "ECCENTRICITY": 0.02018731, "INCLINATION": 99.2819, "RA_OF_ASC_NODE": 327.1847, "ARG_OF_PERICENTER": 90.1586, "MEAN_ANOMALY": 272.2722, "EPHEMERIS_TYPE": 0, "CLASSIFICATION_TYPE": "U", "NORAD_CAT_ID": 30112, "ELEMENT_SET_NO": 999, "REV_AT_EPOCH": 97670, "BSTAR": 0.00043771659, "MEAN_MOTION_DOT": 1.146e-05, "MEAN_MOTION_DDOT": 0}, "tle": {"line1": "1 30112U 99025RR  25352.91096777  .00001146  00000+0  43772-3 0  9992", "line2": "2 30112  99.2819 327.1847 0201873  90.1586 272.2722 14.22239392976709"}}, "geometry": {"type": "Point", "coordinates": [125.14540988129367, -66.955068146216]}}, {"type": "Feature", "properties": {"norad_id": 30113, "name": "FENGYUN 1C DEB", "group": "fengyun-1c-debris", "lat": -34.036824408982355, "lon": -147.76452409496144, "alt_km": 719.1988889365666, "timestamp": "2025-12-19T10:50:01.474953+00:00", "meta": {"OBJECT_NAME": "FENGYUN 1C DEB", "OBJECT_ID": "1999-025RS", "EPOCH": "2025-12-18T13:38:36.868128", "MEAN_MOTION": 14.45399828, "ECCENTRICITY": 0.00405677, "INCLINATION": 99.0373, "RA_OF_ASC_NODE": 205.1249, "ARG_OF_PERICENTER": 345.1161, "MEAN_ANOMALY": 68.9677, "EPHEMERIS_TYPE": 0, "CLASSIFICATION_TYPE": "U", "NORAD_CAT_ID": 30113, "ELEMENT_SET_NO": 999, "REV_AT_EPOCH": 97993, "BSTAR": 0.001451127, "MEAN_MOTION_DOT": 5.11e-05, "MEAN_MOTION_DDOT": 0}, "tle": {"line1": "1 30113U 99025RS  25352.56848227  .00005110  00000+0  14511-2 0  9992", "line2": "2 30113  99.0373 205.1249 0040567 345.1161  68.9677 14.45399828979930"}}, "geometry": {"type": "Point", "coordinates": [-147.76452409496144, -34.036824408982355]}}, {"type": "Feature", "properties": {"norad_id": 30114, "name": "FENGYUN 1C DEB", "group": "fengyun-1c-debris", "lat": -29.065908296156486, "lon": 0.5314725628063363, "alt_km": 904.6536055114038, "timestamp": "2025-12-19T10:50:01.474964+00:00", "meta": {"OBJECT_NAME": "FENGYUN 1C DEB", "OBJECT_ID": "1999-025RT", "EPOCH": "2025-12-18T23:18:06.367392", "MEAN_MOTION": 14.09656534, "ECCENTRICITY": 0.00823156, "INCLINATION": 98.7468, "RA_OF_ASC_NODE": 355.1558, "ARG_OF_PERICENTER": 102.36, "MEAN_ANOMALY": 311.9675, "EPHEMERIS_TYPE": 0, "CLASSIFICATION_TYPE": "U", "NORAD_CAT_ID": 30114, "ELEMENT_SET_NO": 999, "REV_AT_EPOCH": 97242, "BSTAR": 0.00015760997, "MEAN_MOTION_DOT": 2.43e-06, "MEAN_MOTION_DDOT": 0}, "tle": {"line1": "1 30114U 99025RT  25352.97090703  .00000243  00000+0  15761-3 0  9997", "line2": "2 30114  98.7468 355.1558 0082315 102.3600 311.9675 14.09656534972425"}}, "geometry": {"type": "Point", "coordinates": [0.5314725628063363, -29.065908296156486]}}, {"type": "Feature", "properties": {"norad_id": 30115, "name": "FENGYUN 1C DEB", "group": "fengyun-1c-debris", "lat": -72.17792415495524, "lon": 48.72330972292719, "alt_km": 854.2261177050705, "timestamp": "2025-12-19T10:50:01.474974+00:00", "meta": {"OBJECT_NAME": "FENGYUN 1C DEB", "OBJECT_ID": "1999-025RU", "EPOCH": "2025-12-18T13:57:23.386752", "MEAN_MOTION": 14.19800372, "ECCENTRICITY": 0.00675046, "INCLINATION": 98.6219, "RA_OF_ASC_NODE": 19.7159, "ARG_OF_PERICENTER": 44.0363, "MEAN_ANOMALY": 118.6294, "EPHEMERIS_TYPE": 0, "CLASSIFICATION_TYPE": "U", "NORAD_CAT_ID": 30115, "ELEMENT_SET_NO": 999, "REV_AT_EPOCH": 97411, "BSTAR": 0.00074738207, "MEAN_MOTION_DOT": 1.578e-05, "MEAN_MOTION_DDOT": 0}, "tle": {"line1": "1 30115U 99025RU  25352.58152068  .00001578  00000+0  74738-3 0  9999", "line2": "2 30115  98.6219  19.7159 0067504  44.0363 118.6294 14.19800372974119"}}, "geometry": {"type": "Point", "coordinates": [48.72330972292719, -72.17792415495524]}}, {"type": "Feature", "properties": {"norad_id": 30116, "name": "FENGYUN 1C DEB", "group": "fengyun-1c-debris", "lat": 77.24441978679026, "lon": 17.985972985483638, "alt_km": 793.9594007571941, "timestamp": "2025-12-19T10:50:01.474984+00:00", "meta": {"OBJECT_NAME": "FENGYUN 1C DEB", "OBJECT_ID": "1999-025RV", "EPOCH": "2025-12-18T16:41:45.692736", "MEAN_MOTION": 14.29321447, "ECCENTRICITY": 0.00206096, "INCLINATION": 99.3978, "RA_OF_ASC_NODE": 64.1912, "ARG_OF_PERICENTER": 323.9101, "MEAN_ANOMALY": 190.7072, "EPHEMERIS_TYPE": 0, "CLASSIFICATION_TYPE": "U", "NORAD_CAT_ID": 30116, "ELEMENT_SET_NO": 999, "REV_AT_EPOCH": 97594, "BSTAR": 0.0010513829, "MEAN_MOTION_DOT": 2.633e-05, "MEAN_MOTION_DDOT": 0}, "tle": {"line1": "1 30116U 99025RV  25352.69566774  .00002633  00000+0  10514-2 0  9999", "line2": "2 30116  99.3978  64.1912 0020609 323.9101 190.7072 14.29321447975944"}}, "geometry": {"type": "Point", "coordinates": [17.985972985483638, 77.24441978679026]}}, {"type": "Feature", "properties": {"norad_id": 30117, "name": "FENGYUN 1C DEB", "group": "fengyun-1c-debris", "lat": -6.58262123605307, "lon": 160.70485124781553, "alt_km": 754.2224989840506, "timestamp": "2025-12-19T10:50:01.474994+00:00", "meta": {"OBJECT_NAME": "FENGYUN 1C DEB", "OBJECT_ID": "1999-025RW", "EPOCH": "2025-12-18T22:18:10.962720", "MEAN_MOTION": 14.07165415, "ECCENTRICITY": 0.01639144, "INCLINATION": 98.8043, "RA_OF_ASC_NODE": 341.2209, "ARG_OF_PERICENTER": 191.6982, "MEAN_ANOMALY": 231.5181, "EPHEMERIS_TYPE": 0, "CLASSIFICATION_TYPE": "U", "NORAD_CAT_ID": 30117, "ELEMENT_SET_NO": 999, "REV_AT_EPOCH": 97076, "BSTAR": 0.00017029354, "MEAN_MOTION_DOT": 2.79e-06, "MEAN_MOTION_DDOT": 0}, "tle": {"line1": "1 30117U 99025RW  25352.92929355  .00000279  00000+0  17029-3 0  9997", "line2": "2 30117  98.8043 341.2209 0163914 191.6982 231.5181 14.07165415970761"}}, "geometry": {"type": "Point", "coordinates": [160.70485124781553, -6.58262123605307]}}, {"type": "Feature", "properties": {"norad_id": 30118, "name": "FENGYUN 1C DEB", "group": "fengyun-1c-debris", "lat": -49.24192806961353, "lon": 166.6347876414728, "alt_km": 944.0099183522061, "timestamp": "2025-12-19T10:50:01.475005+00:00", "meta": {"OBJECT_NAME": "FENGYUN 1C DEB", "OBJECT_ID": "1999-025RX", "EPOCH": "2025-12-18T22:05:28.933728", "MEAN_MOTION": 14.05124414, "ECCENTRICITY": 0.00852077, "INCLINATION": 98.803, "RA_OF_ASC_NODE": 356.4769, "ARG_OF_PERICENTER": 42.6544, "MEAN_ANOMALY": 23.2527, "EPHEMERIS_TYPE": 0, "CLASSIFICATION_TYPE": "U", "NORAD_CAT_ID": 30118, "ELEMENT_SET_NO": 999, "REV_AT_EPOCH": 97018, "BSTAR": -1.0044388e-05, "MEAN_MOTION_DOT": -5.9e-07, "MEAN_MOTION_DDOT": 0}, "tle": {"line1": "1 30118U 99025RX  25352.92047377 -.00000059  00000+0 -10044-4 0  9992", "line2": "2 30118  98.8030 356.4769 0085207  42.6544  23.2527 14.05124414970182"}}, "geometry": {"type": "Point", "coordinates": [166.6347876414728, -49.24192806961353]}}, {"type": "Feature", "properties": {"norad_id": 30119, "name": "FENGYUN 1C DEB", "group": "fengyun-1c-debris", "lat": -39.225852658494, "lon": 160.22448907543594, "alt_km": 767.1859498380318, "timestamp": "2025-12-19T10:50:01.475015+00:00", "meta": {"OBJECT_NAME": "FENGYUN 1C DEB", "OBJECT_ID": "1999-025RY", "EPOCH": "2025-12-18T22:14:59.209152", "MEAN_MOTION": 14.22281015, "ECCENTRICITY": 0.01307906, "INCLINATION": 97.9199, "RA_OF_ASC_NODE": 346.2781, "ARG_OF_PERICENTER": 274.5332, "MEAN_ANOMALY": 143.1019, "EPHEMERIS_TYPE": 0, "CLASSIFICATION_TYPE": "U", "NORAD_CAT_ID": 30119, "ELEMENT_SET_NO": 999, "REV_AT_EPOCH": 97268, "BSTAR": 0.0011565515, "MEAN_MOTION_DOT": 2.766e-05, "MEAN_MOTION_DDOT": 0}, "tle": {"line1": "1 30119U 99025RY  25352.92707418  .00002766  00000+0  11566-2 0  9995", "line2": "2 30119  97.9199 346.2781 0130790 274.5332 143.1019 14.22281015972684"}}, "geometry": {"type": "Point", "coordinates": [160.22448907543594, -39.225852658494]}}, {"type": "Feature", "properties": {"norad_id": 30120, "name": "FENGYUN 1C DEB", "group": "fengyun-1c-debris", "lat": -47.09047652510548, "lon": 85.08558345418012, "alt_km": 828.8836424310266, "timestamp": "2025-12-19T10:50:01.475025+00:00", "meta": {"OBJECT_NAME": "FENGYUN 1C DEB", "OBJECT_ID": "1999-025RZ", "EPOCH": "2025-12-18T17:16:05.549088", "MEAN_MOTION": 14.27656836, "ECCENTRICITY": 0.00638333, "INCLINATION": 98.8518, "RA_OF_ASC_NODE": 74.6937, "ARG_OF_PERICENTER": 194.5468, "MEAN_ANOMALY": 317.5481, "EPHEMERIS_TYPE": 0, "CLASSIFICATION_TYPE": "U", "NORAD_CAT_ID": 30120, "ELEMENT_SET_NO": 999, "REV_AT_EPOCH": 97456, "BSTAR": 0.0014313836, "MEAN_MOTION_DOT": 3.56e-05, "MEAN_MOTION_DDOT": 0}, "tle": {"line1": "1 30120U 99025RZ  25352.71950867  .00003560  00000+0  14314-2 0  9999", "line2": "2 30120  98.8518  74.6937 0063833 194.5468 317.5481 14.27656836974561"}}, "geometry": {"type": "Point", "coordinates": [85.08558345418012, -47.09047652510548]}}]}